[ {"name": "STARLINK-35171", "line1": "1 65605U 25207P   26169.44587547  .00000019  00000+0  53040-5 0  9992", "line2": "2 65605  97.3423 236.9804 0002136  84.6417 275.5054 15.05636000 43265"}, {"name": "STARLINK-35195", "line1": "1 65606U 25207Q   26169.68677190  .00003707  00000+0  26070-3 0  9991", "line2": "2 65606  97.3430 237.2637 0001373  84.2322 275.9062 15.05652742 43461"}, {"name": "STARLINK-35156", "line1": "1 65607U 25207R   26169.69231549  .00001836  00000+0  13117-3 0  9996", "line2": "2 65607  97.3435 237.2562 0002286 103.5761 256.5721 15.05656085 43461"}, {"name": "STARLINK-35185", "line1": "1 65608U 25207S   26169.45139812  .00002068  00000+0  14720-3 0  9990", "line2": "2 65608  97.3440 236.9691 0001482  99.9221 260.2174 15.05656984 43421"}, {"name": "STARLINK-35053", "line1": "1 65609U 25207T   26169.63418266  .00007005  00000+0  48885-3 0  9999", "line2": "2 65609  97.3427 237.1813 0001826 125.7259 234.4139 15.05658047 43298"}, {"name": "STARLINK-35178", "line1": "1 65610U 25207U   26169.66184608  .00004970  00000+0  34797-3 0  9999", "line2": "2 65610  97.3437 237.1433 0002302 134.8527 225.2887 15.05674985 43453"}, {"name": "STARLINK-35186", "line1": "1 65611U 25207V   26169.68399412  .00002843  00000+0  20084-3 0  9994", "line2": "2 65611  97.3430 237.1147 0001128 106.9796 253.1555 15.05658652 43457"}, {"name": "STARLINK-35154", "line1": "1 65612U 25207W   26169.69508367  .00002636  00000+0  18658-3 0  9991", "line2": "2 65612  97.3425 237.2529 0001773  96.4162 263.7267 15.05654685 43306"}, {"name": "STARLINK-35162", "line1": "1 65613U 25207X   26169.44310684  .00006471  00000+0  45188-3 0  9997", "line2": "2 65613  97.3429 236.9805 0002029  98.9432 261.2025 15.05662892 43423"}, {"name": "STARLINK-35206", "line1": "1 65614U 25207Y   26169.66739122  .00000342  00000+0  27658-4 0  9998", "line2": "2 65614  97.3481 237.1363 0002353 100.3508 259.7984 15.05646416 43347"}, {"name": "STARLINK-35174", "line1": "1 65615U 25207Z   26169.67568404  .00005092  00000+0  35651-3 0  9991", "line2": "2 65615  97.3458 237.1244 0001524 145.7713 214.3613 15.05662912 43457"}, {"name": "STARLINK-35247", "line1": "1 65622U 25210A   26169.49845012  .00013750  00000+0  47543-3 0  9999", "line2": "2 65622  53.1569 198.9580 0000953  91.2963 268.8147 15.30205805 43168"}, {"name": "STARLINK-35239", "line1": "1 65623U 25210B   26169.44427064  .00017897  00000+0  53944-3 0  9996", "line2": "2 65623  53.1580 197.2023 0001028  99.4132 260.6987 15.34407290 43188"}, {"name": "STARLINK-35151", "line1": "1 65624U 25210C   26169.37655669  .00009839  00000+0  30193-3 0  9991", "line2": "2 65624  53.1572 196.0642 0001164  84.1962 275.9173 15.34401174 43111"}, {"name": "STARLINK-35153", "line1": "1 65625U 25210D   26169.50309348  .00014892  00000+0  45099-3 0  9993", "line2": "2 65625  53.1577 196.8579 0000822  58.4367 301.6716 15.34401375 43110"}, {"name": "STARLINK-35225", "line1": "1 65626U 25210E   26169.46110273  .00015372  00000+0  46512-3 0  9991", "line2": "2 65626  53.1582 197.3092 0000982  73.9983 286.1128 15.34401814 43185"}, {"name": "STARLINK-35217", "line1": "1 65627U 25210F   26169.38154197  .00005449  00000+0  19594-3 0  9990", "line2": "2 65627  53.1574 199.6464 0000410  63.2922 296.8121 15.30201050 43149"}, {"name": "STARLINK-35128", "line1": "1 65628U 25210G   26169.46951845  .00012471  00000+0  37956-3 0  9990", "line2": "2 65628  53.1584 197.3611 0000837  48.1343 311.9731 15.34405663 43182"}, {"name": "STARLINK-35135", "line1": "1 65629U 25210H   26169.36239155  .00018075  00000+0  54463-3 0  9991", "line2": "2 65629  53.1571 198.1148 0001050  90.1368 269.9755 15.34410038 43163"}, {"name": "STARLINK-34877", "line1": "1 65630U 25210J   26169.34767910  .00015877  00000+0  47989-3 0  9998", "line2": "2 65630  53.1585 198.0218 0001205  68.7561 291.3571 15.34410345 43161"}, {"name": "STARLINK-35104", "line1": "1 65631U 25210K   26169.45058264  .00010227  00000+0  31333-3 0  9996", "line2": "2 65631  53.1584 197.2398 0001309  75.2907 284.8240 15.34406598 43179"}, {"name": "STARLINK-35117", "line1": "1 65632U 25210L   26169.45002079  .00013920  00000+0  48113-3 0  9997", "line2": "2 65632  53.1580 199.3584 0001321  57.7913 302.3216 15.30206244 43151"}, {"name": "STARLINK-35103", "line1": "1 65633U 25210M   26169.45689601  .00009780  00000+0  30016-3 0  9992", "line2": "2 65633  53.1596 197.2794 0001488  75.6979 284.4189 15.34404455 43184"}, {"name": "STARLINK-35123", "line1": "1 65634U 25210N   26169.48784606  .00011838  00000+0  39242-3 0  9994", "line2": "2 65634  53.1597 198.8846 0000747  50.6135 309.4933 15.31716625 43160"}, {"name": "STARLINK-35150", "line1": "1 65635U 25210P   26169.38048674  .00007318  00000+0  25888-3 0  9991", "line2": "2 65635  53.1565 199.6329 0000641   9.8888 350.2125 15.30208877 43144"}, {"name": "STARLINK-35209", "line1": "1 65636U 25210Q   26169.49476976  .00026296  00000+0  78676-3 0  9993", "line2": "2 65636  53.1577 197.5194 0001051  81.0728 279.0394 15.34396955 43185"}, {"name": "STARLINK-35147", "line1": "1 65637U 25210R   26169.33714436  .00021379  00000+0  64181-3 0  9996", "line2": "2 65637  53.1578 197.9552 0001540  67.9413 292.1753 15.34412820 43169"}, {"name": "STARLINK-35213", "line1": "1 65638U 25210S   26169.46321255  .00014770  00000+0  44750-3 0  9991", "line2": "2 65638  53.1580 197.3186 0000524 105.3614 254.7447 15.34394015 43182"}, {"name": "STARLINK-35127", "line1": "1 65639U 25210T   26169.45479875  .00016505  00000+0  49817-3 0  9990", "line2": "2 65639  53.1567 197.2659 0000955  89.5550 270.5562 15.34423000 43183"}, {"name": "STARLINK-35091", "line1": "1 65640U 25210U   26169.35397705  .00015888  00000+0  48045-3 0  9997", "line2": "2 65640  53.1579 198.0580 0001375  86.3343 273.7817 15.34394887 43168"}, {"name": "STARLINK-35134", "line1": "1 65641U 25210V   26169.31820478  .00019489  00000+0  58635-3 0  9999", "line2": "2 65641  53.1571 197.8360 0001252 130.4495 229.6617 15.34404321 43160"}, {"name": "STARLINK-35109", "line1": "1 65642U 25210W   26169.31189584  .00012701  00000+0  38633-3 0  9992", "line2": "2 65642  53.1568 197.7946 0001062  96.9725 263.1398 15.34404633 43162"}, {"name": "STARLINK-35062", "line1": "1 65643U 25210X   26169.37492447  .00014440  00000+0  43761-3 0  9994", "line2": "2 65643  53.1572 197.4758 0000697  36.3021 323.8028 15.34404113 43174"}, {"name": "STARLINK-35141", "line1": "1 65644U 25210Y   26169.37601491  .00011629  00000+0  38576-3 0  9990", "line2": "2 65644  53.1572 199.6081 0000945  88.3028 271.8081 15.31711888 43143"}, {"name": "STARLINK-35237", "line1": "1 65645U 25210Z   26169.25618438  .00009572  00000+0  33484-3 0  9994", "line2": "2 65645  53.1566 200.2811 0000975 111.4083 248.7022 15.30202280 43125"}, {"name": "STARLINK-35183", "line1": "1 65646U 25210AA  26169.37732736  .00010542  00000+0  36736-3 0  9998", "line2": "2 65646  53.1566 199.6148 0001306  97.8942 262.2207 15.30216926 43140"}, {"name": "STARLINK-35202", "line1": "1 65647U 25210AB  26169.43959896  .00002386  00000+0  81821-4 0  9997", "line2": "2 65647  53.1567 195.7422 0000853  90.0240 270.0860 15.34364536 43200"}, {"name": "STARLINK-34868", "line1": "1 65648U 25210AC  26169.34555970  .00014367  00000+0  43549-3 0  9999", "line2": "2 65648  53.1580 198.0004 0001243  71.2190 288.8947 15.34403462 43167"}, {"name": "STARLINK-35079", "line1": "1 65649U 25210AD  26169.50056015  .00008993  00000+0  31539-3 0  9998", "line2": "2 65649  53.1570 198.9591 0000937  80.7611 279.3496 15.30198850 43161"}, {"name": "STARLINK-35328", "line1": "1 65652U 25211A   26169.67525429 -.00011808  00000+0 -81600-3 0  9996", "line2": "2 65652  97.3476 212.5218 0002340 133.3578 226.7844 15.05639844 42231"}, {"name": "STARLINK-34210", "line1": "1 65653U 25211B   26169.60326300  .00005299  00000+0  37077-3 0  9991", "line2": "2 65653  97.3456 212.4672 0000983 102.8919 257.2419 15.05665625 42226"}, {"name": "STARLINK-35227", "line1": "1 65654U 25211C   26169.59772878  .00003536  00000+0  24884-3 0  9999", "line2": "2 65654  97.3456 212.4741 0001826  95.5004 264.6432 15.05660891 42221"}, {"name": "STARLINK-35240", "line1": "1 65655U 25211D   26169.67249294  .00002845  00000+0  20100-3 0  9999", "line2": "2 65655  97.3420 212.5196 0002050 126.3638 233.7779 15.05661422 42237"}, {"name": "STARLINK-35344", "line1": "1 65656U 25211E   26169.60049365  .00006529  00000+0  45580-3 0  9992", "line2": "2 65656  97.3446 212.4682 0001297 114.8697 245.2666 15.05668296 42222"}, {"name": "STARLINK-34540", "line1": "1 65657U 25211F   26169.59495787  .00003416  00000+0  24052-3 0  9997", "line2": "2 65657  97.3446 212.4760 0001508 150.1161 210.0153 15.05660978 42224"}, {"name": "STARLINK-35282", "line1": "1 65658U 25211G   26169.39004957  .00004922  00000+0  34474-3 0  9993", "line2": "2 65658  97.3433 212.2952 0002236 113.4027 246.7436 15.05659374 42198"}, {"name": "STARLINK-35120", "line1": "1 65659U 25211H   26169.59218000 -.00000146  00000+0 -61606-5 0  9997", "line2": "2 65659  97.3444 212.4818 0001550 110.5256 249.6137 15.05654722 42220"}, {"name": "STARLINK-35246", "line1": "1 65660U 25211J   26169.12146010  .00006709  00000+0  46849-3 0  9998", "line2": "2 65660  97.3432 212.0470 0001589  90.4865 269.6545 15.05651324 42155"}, {"name": "STARLINK-35220", "line1": "1 65661U 25211K   26169.11869183 -.00003223  00000+0 -21965-3 0  9993", "line2": "2 65661  97.3469 212.0513 0001471  83.6539 276.4856 15.05634217 42159"}, {"name": "STARLINK-35176", "line1": "1 65662U 25211L   26169.11591331  .00002967  00000+0  20946-3 0  9991", "line2": "2 65662  97.3454 212.0529 0002293  84.8566 275.2923 15.05657292 42157"}, {"name": "STARLINK-35190", "line1": "1 65663U 25211M   26169.11314230  .00002100  00000+0  14941-3 0  9990", "line2": "2 65663  97.3478 212.0571 0001936  90.0768 270.0682 15.05658801 42159"}, {"name": "STARLINK-35201", "line1": "1 65664U 25211N   26169.37620615  .00001873  00000+0  13367-3 0  9993", "line2": "2 65664  97.3442 212.3159 0002420 105.2523 254.8972 15.05659219 42193"}]